ONEWEB-0033             
1 45142U 20008M   26109.25757079  .00000066  00000+0  15283-3 0  9999
2 45142  87.8843  48.0043 0002047  63.6230 296.5107 13.10376208300495
ONEWEB-0035             
1 45143U 20008N   26109.21192626  .00000470  00000+0  13103-2 0  9994
2 45143  87.8833  48.0115 0001927  75.8634 284.2707 13.10370303300214
ONEWEB-0036             
1 45144U 20008P   26109.07628818 -.00000519  00000+0 -15349-2 0  9996
2 45144  87.8846  48.0245 0001813  87.0773 273.0561 13.09815193300624
ONEWEB-0038             
1 45145U 20008Q   26109.19147680 -.00000458  00000+0 -13294-2 0  9992
2 45145  87.8940  32.7957 0003452  77.0063 283.1450 13.11415813302597
ONEWEB-0039             
1 45146U 20008R   26109.26088020  .00000127  00000+0  32879-3 0  9995
2 45146  87.8850  47.9913 0002011  93.3367 266.7990 13.10377221300443
ONEWEB-0040             
1 45147U 20008S   26109.10152325 -.00000179  00000+0 -54818-3 0  9995
2 45147  87.8845  48.0362 0001930  78.9449 281.1895 13.10376650300122
ONEWEB-0043             
1 45149U 20008U   26109.25589111 -.00000242  00000+0 -73063-3 0  9994
2 45149  87.8850  47.9903 0002070  95.2907 264.8456 13.10375890300469
ONEWEB-0044             
1 45150U 20008V   26109.05507319  .00000531  00000+0  14856-2 0  9997
2 45150  87.8845  48.0278 0002004  83.8645 276.2711 13.10370825300735
ONEWEB-0045             
1 45151U 20008W   26109.26254890 -.00000267  00000+0 -78963-3 0  9992
2 45151  87.8929  32.7687 0001933  81.3003 278.8344 13.11415654302681
ONEWEB-0047             
1 45152U 20008X   26109.27749563  .00000743  00000+0  20931-2 0  9998
2 45152  87.8847  47.9841 0002048  75.4977 284.6377 13.10372365300480
ONEWEB-0048             
1 45153U 20008Y   26109.27251472  .00000657  00000+0  18451-2 0  9994
2 45153  87.8838  48.0100 0001928  77.2949 282.8394 13.10375112300095
ONEWEB-0049             
1 45154U 20008Z   26109.27570180  .00000705  00000+0  19822-2 0  9992
2 45154  87.8842  47.9977 0001548  86.7868 273.3436 13.10373119300316
ONEWEB-0051             
1 45155U 20008AA  26109.18455304 -.00000245  00000+0 -72745-3 0  9998
2 45155  87.8923  32.7958 0001850  78.2760 281.8575 13.11414074303353
ONEWEB-0052             
1 45156U 20008AB  26109.06750448 -.00000028  00000+0 -11599-3 0  9992
2 45156  87.8853  48.0246 0001483  89.1268 271.0030 13.10367363300195
ONEWEB-0053             
1 45157U 20008AC  26109.25258163 -.00000254  00000+0 -76506-3 0  9991
2 45157  87.8844  48.0112 0001875  94.8755 265.2587 13.10375431300194
ONEWEB-0054             
1 45158U 20008AD  26109.05837325  .00000455  00000+0  12663-2 0  9997
2 45158  87.8844  48.0276 0001812  78.9315 281.2016 13.10369110300284
