[{"OBJECT_NAME":"ONEWEB-0033","OBJECT_ID":"2020-008M","EPOCH":"2026-04-19T06:10:54.116256","MEAN_MOTION":13.10376208,"ECCENTRICITY":0.0002047,"INCLINATION":87.8843,"RA_OF_ASC_NODE":48.0043,"ARG_OF_PERICENTER":63.623,"MEAN_ANOMALY":296.5107,"EPHEMERIS_TYPE":0,"CLASSIFICATION_TYPE":"U","NORAD_CAT_ID":45142,"ELEMENT_SET_NO":999,"REV_AT_EPOCH":30049,"BSTAR":0.00015282999999999999,"MEAN_MOTION_DOT":6.6e-07,"MEAN_MOTION_DDOT":0.0},{"OBJECT_NAME":"ONEWEB-0035","OBJECT_ID":"2020-008N","EPOCH":"2026-04-19T05:05:10.428864","MEAN_MOTION":13.10370303,"ECCENTRICITY":0.0001927,"INCLINATION":87.8833,"RA_OF_ASC_NODE":48.0115,"ARG_OF_PERICENTER":75.8634,"MEAN_ANOMALY":284.2707,"EPHEMERIS_TYPE":0,"CLASSIFICATION_TYPE":"U","NORAD_CAT_ID":45143,"ELEMENT_SET_NO":999,"REV_AT_EPOCH":30021,"BSTAR":0.0013103000000000001,"MEAN_MOTION_DOT":4.7e-06,"MEAN_MOTION_DDOT":0.0},{"OBJECT_NAME":"ONEWEB-0036","OBJECT_ID":"2020-008P","EPOCH":"2026-04-19T01:49:51.298752","MEAN_MOTION":13.09815193,"ECCENTRICITY":0.0001813,"INCLINATION":87.8846,"RA_OF_ASC_NODE":48.0245,"ARG_OF_PERICENTER":87.0773,"MEAN_ANOMALY":273.0561,"EPHEMERIS_TYPE":0,"CLASSIFICATION_TYPE":"U","NORAD_CAT_ID":45144,"ELEMENT_SET_NO":999,"REV_AT_EPOCH":30062,"BSTAR":-0.0015348999999999998,"MEAN_MOTION_DOT":-5.19e-06,"MEAN_MOTION_DDOT":0.0},{"OBJECT_NAME":"ONEWEB-0038","OBJECT_ID":"2020-008Q","EPOCH":"2026-04-19T04:35:43.595520","MEAN_MOTION":13.11415813,"ECCENTRICITY":0.0003452,"INCLINATION":87.894,"RA_OF_ASC_NODE":32.7957,"ARG_OF_PERICENTER":77.0063,"MEAN_ANOMALY":283.145,"EPHEMERIS_TYPE":0,"CLASSIFICATION_TYPE":"U","NORAD_CAT_ID":45145,"ELEMENT_SET_NO":999,"REV_AT_EPOCH":30259,"BSTAR":-0.0013294000000000001,"MEAN_MOTION_DOT":-4.58e-06,"MEAN_MOTION_DDOT":0.0},{"OBJECT_NAME":"ONEWEB-0039","OBJECT_ID":"2020-008R","EPOCH":"2026-04-19T06:15:40.049280","MEAN_MOTION":13.10377221,"ECCENTRICITY":0.0002011,"INCLINATION":87.885,"RA_OF_ASC_NODE":47.9913,"ARG_OF_PERICENTER":93.3367,"MEAN_ANOMALY":266.799,"EPHEMERIS_TYPE":0,"CLASSIFICATION_TYPE":"U","NORAD_CAT_ID":45146,"ELEMENT_SET_NO":999,"REV_AT_EPOCH":30044,"BSTAR":0.00032879000000000003,"MEAN_MOTION_DOT":1.27e-06,"MEAN_MOTION_DDOT":0.0},{"OBJECT_NAME":"ONEWEB-0040","OBJECT_ID":"2020-008S","EPOCH":"2026-04-19T02:26:11.608800","MEAN_MOTION":13.1037665,"ECCENTRICITY":0.000193,"INCLINATION":87.8845,"RA_OF_ASC_NODE":48.0362,"ARG_OF_PERICENTER":78.9449,"MEAN_ANOMALY":281.1895,"EPHEMERIS_TYPE":0,"CLASSIFICATION_TYPE":"U","NORAD_CAT_ID":45147,"ELEMENT_SET_NO":999,"REV_AT_EPOCH":30012,"BSTAR":-0.00054818,"MEAN_MOTION_DOT":-1.79e-06,"MEAN_MOTION_DDOT":0.0},{"OBJECT_NAME":"ONEWEB-0043","OBJECT_ID":"2020-008U","EPOCH":"2026-04-19T06:08:28.991904","MEAN_MOTION":13.1037589,"ECCENTRICITY":0.000207,"INCLINATION":87.885,"RA_OF_ASC_NODE":47.9903,"ARG_OF_PERICENTER":95.2907,"MEAN_ANOMALY":264.8456,"EPHEMERIS_TYPE":0,"CLASSIFICATION_TYPE":"U","NORAD_CAT_ID":45149,"ELEMENT_SET_NO":999,"REV_AT_EPOCH":30046,"BSTAR":-0.00073063,"MEAN_MOTION_DOT":-2.42e-06,"MEAN_MOTION_DDOT":0.0},{"OBJECT_NAME":"ONEWEB-0044","OBJECT_ID":"2020-008V","EPOCH":"2026-04-19T01:19:18.323616","MEAN_MOTION":13.10370825,"ECCENTRICITY":0.0002004,"INCLINATION":87.8845,"RA_OF_ASC_NODE":48.0278,"ARG_OF_PERICENTER":83.8645,"MEAN_ANOMALY":276.2711,"EPHEMERIS_TYPE":0,"CLASSIFICATION_TYPE":"U","NORAD_CAT_ID":45150,"ELEMENT_SET_NO":999,"REV_AT_EPOCH":30073,"BSTAR":0.0014856000000000001,"MEAN_MOTION_DOT":5.31e-06,"MEAN_MOTION_DDOT":0.0},{"OBJECT_NAME":"ONEWEB-0045","OBJECT_ID":"2020-008W","EPOCH":"2026-04-19T06:18:04.224960","MEAN_MOTION":13.11415654,"ECCENTRICITY":0.0001933,"INCLINATION":87.8929,"RA_OF_ASC_NODE":32.7687,"ARG_OF_PERICENTER":81.3003,"MEAN_ANOMALY":278.8344,"EPHEMERIS_TYPE":0,"CLASSIFICATION_TYPE":"U","NORAD_CAT_ID":45151,"ELEMENT_SET_NO":999,"REV_AT_EPOCH":30268,"BSTAR":-0.00078963,"MEAN_MOTION_DOT":-2.67e-06,"MEAN_MOTION_DDOT":0.0},{"OBJECT_NAME":"ONEWEB-0047","OBJECT_ID":"2020-008X","EPOCH":"2026-04-19T06:39:35.622432","MEAN_MOTION":13.10372365,"ECCENTRICITY":0.0002048,"INCLINATION":87.8847,"RA_OF_ASC_NODE":47.9841,"ARG_OF_PERICENTER":75.4977,"MEAN_ANOMALY":284.6377,"EPHEMERIS_TYPE":0,"CLASSIFICATION_TYPE":"U","NORAD_CAT_ID":45152,"ELEMENT_SET_NO":999,"REV_AT_EPOCH":30048,"BSTAR":0.0020931,"MEAN_MOTION_DOT":7.43e-06,"MEAN_MOTION_DDOT":0.0},{"OBJECT_NAME":"ONEWEB-0048","OBJECT_ID":"2020-008Y","EPOCH":"2026-04-19T06:32:25.271808","MEAN_MOTION":13.10375112,"ECCENTRICITY":0.0001928,"INCLINATION":87.8838,"RA_OF_ASC_NODE":48.01,"ARG_OF_PERICENTER":77.2949,"MEAN_ANOMALY":282.8394,"EPHEMERIS_TYPE":0,"CLASSIFICATION_TYPE":"U","NORAD_CAT_ID":45153,"ELEMENT_SET_NO":999,"REV_AT_EPOCH":30009,"BSTAR":0.0018451000000000001,"MEAN_MOTION_DOT":6.57e-06,"MEAN_MOTION_DDOT":0.0},{"OBJECT_NAME":"ONEWEB-0049","OBJECT_ID":"2020-008Z","EPOCH":"2026-04-19T06:37:00.635520","MEAN_MOTION":13.10373119,"ECCENTRICITY":0.0001548,"INCLINATION":87.8842,"RA_OF_ASC_NODE":47.9977,"ARG_OF_PERICENTER":86.7868,"MEAN_ANOMALY":273.3436,"EPHEMERIS_TYPE":0,"CLASSIFICATION_TYPE":"U","NORAD_CAT_ID":45154,"ELEMENT_SET_NO":999,"REV_AT_EPOCH":30031,"BSTAR":0.0019822,"MEAN_MOTION_DOT":7.05e-06,"MEAN_MOTION_DDOT":0.0},{"OBJECT_NAME":"ONEWEB-0051","OBJECT_ID":"2020-008AA","EPOCH":"2026-04-19T04:25:45.382656","MEAN_MOTION":13.11414074,"ECCENTRICITY":0.000185,"INCLINATION":87.8923,"RA_OF_ASC_NODE":32.7958,"ARG_OF_PERICENTER":78.276,"MEAN_ANOMALY":281.8575,"EPHEMERIS_TYPE":0,"CLASSIFICATION_TYPE":"U","NORAD_CAT_ID":45155,"ELEMENT_SET_NO":999,"REV_AT_EPOCH":30335,"BSTAR":-0.00072745,"MEAN_MOTION_DOT":-2.45e-06,"MEAN_MOTION_DDOT":0.0},{"OBJECT_NAME":"ONEWEB-0052","OBJECT_ID":"2020-008AB","EPOCH":"2026-04-19T01:37:12.387072","MEAN_MOTION":13.10367363,"ECCENTRICITY":0.0001483,"INCLINATION":87.8853,"RA_OF_ASC_NODE":48.0246,"ARG_OF_PERICENTER":89.1268,"MEAN_ANOMALY":271.003,"EPHEMERIS_TYPE":0,"CLASSIFICATION_TYPE":"U","NORAD_CAT_ID":45156,"ELEMENT_SET_NO":999,"REV_AT_EPOCH":30019,"BSTAR":-0.00011598999999999999,"MEAN_MOTION_DOT":-2.8e-07,"MEAN_MOTION_DDOT":0.0},{"OBJECT_NAME":"ONEWEB-0053","OBJECT_ID":"2020-008AC","EPOCH":"2026-04-19T06:03:43.052832","MEAN_MOTION":13.10375431,"ECCENTRICITY":0.0001875,"INCLINATION":87.8844,"RA_OF_ASC_NODE":48.0112,"ARG_OF_PERICENTER":94.8755,"MEAN_ANOMALY":265.2587,"EPHEMERIS_TYPE":0,"CLASSIFICATION_TYPE":"U","NORAD_CAT_ID":45157,"ELEMENT_SET_NO":999,"REV_AT_EPOCH":30019,"BSTAR":-0.00076506,"MEAN_MOTION_DOT":-2.54e-06,"MEAN_MOTION_DDOT":0.0},{"OBJECT_NAME":"ONEWEB-0054","OBJECT_ID":"2020-008AD","EPOCH":"2026-04-19T01:24:03.448800","MEAN_MOTION":13.1036911,"ECCENTRICITY":0.0001812,"INCLINATION":87.8844,"RA_OF_ASC_NODE":48.0276,"ARG_OF_PERICENTER":78.9315,"MEAN_ANOMALY":281.2016,"EPHEMERIS_TYPE":0,"CLASSIFICATION_TYPE":"U","NORAD_CAT_ID":45158,"ELEMENT_SET_NO":999,"REV_AT_EPOCH":30028,"BSTAR":0.0012663,"MEAN_MOTION_DOT":4.55e-06,"MEAN_MOTION_DDOT":0.0}]